QIANFAN-52              
1 62253U 24232S   26061.79226155  .00000061  00000+0  75704-4 0  9996
2 62253  89.0047  33.0254 0014356 328.4579  31.5710 13.51000362 78757
QIANFAN-53              
1 62254U 24232T   26061.84572620  .00000071  00000+0  92275-4 0  9997
2 62254  89.0054  33.1305 0013279 330.0888  29.9503 13.51003179 78726
QIANFAN-54              
1 62255U 24232U   26061.81283910  .00000059  00000+0  72961-4 0  9992
2 62255  89.0047  32.8053 0003291  43.4526 316.6884 13.51002517110227
QIANFAN-55              
1 62785U 25016A   26061.76481118  .00000056  00000+0  67978-4 0  9994
2 62785  88.9695  94.9322 0019352 115.2230 245.0930 13.50996048 57996
QIANFAN-56              
1 62786U 25016B   26061.78118699  .00000072  00000+0  92191-4 0  9991
2 62786  88.9668  94.7452 0017979 117.1116 243.1872 13.50997991 58045
QIANFAN-57              
1 62787U 25016C   26061.81416368  .00000072  00000+0  92839-4 0  9999
2 62787  88.9700  94.9202 0001356  95.7831 264.3474 13.50996848 58015
QIANFAN-58              
1 62788U 25016D   26061.78530019  .00000069  00000+0  87170-4 0  9994
2 62788  88.9669  94.7301 0015958 110.1294 250.1575 13.50998438 58052
QIANFAN-59              
1 62789U 25016E   26061.81013137  .00000057  00000+0  69136-4 0  9995
2 62789  88.9692  94.8203 0016290 113.4268 246.8598 13.50994333 58055
QIANFAN-60              
1 62790U 25016F   26061.76899263  .00000046  00000+0  51808-4 0  9998
2 62790  88.9674  94.7807 0017870 110.5980 249.7090 13.50992316 58036
QIANFAN-61              
1 62791U 25016G   26061.80191534  .00000052  00000+0  61974-4 0  9992
2 62791  88.9741  94.9948 0016801 109.8305 250.4659 13.50993642 58050
QIANFAN-62              
1 62792U 25016H   26061.80596563  .00000048  00000+0  54969-4 0  9995
2 62792  88.9687  94.8194 0018183 110.2898 250.0210 13.50996335 58040
QIANFAN-63              
1 62793U 25016J   26061.75662065  .00000064  00000+0  79636-4 0  9997
2 62793  88.9694  94.7815 0018199 115.1973 245.1067 13.50994968 58071
QIANFAN-64              
1 62794U 25016K   26061.79780477  .00000046  00000+0  52133-4 0  9993
2 62794  88.9681  94.7404 0016187 108.6105 251.6805 13.50992908 58075
QIANFAN-65              
1 62795U 25016L   26061.79361155  .00000055  00000+0  66661-4 0  9993
2 62795  88.9677  94.7641 0016029 110.0936 250.1942 13.51008514 58054
QIANFAN-66              
1 62796U 25016M   26061.74833010  .00000077  00000+0  10064-3 0  9992
2 62796  88.9697  94.7546 0017158 106.5277 253.7761 13.50996706 58093
QIANFAN-67              
1 62797U 25016N   26061.75238635  .00000061  00000+0  74956-4 0  9990
2 62797  88.9687  94.7720 0017079 112.5856 247.7104 13.50995024 58062
QIANFAN-68              
1 62798U 25016P   26061.74431882  .00000066  00000+0  83696-4 0  9995
2 62798  88.9691  94.8209 0017141 111.0299 249.2688 13.51004983 58044
