[{"OBJECT_NAME":"QIANFAN-52","OBJECT_ID":"2024-232S","EPOCH":"2026-03-02T19:00:51.397920","MEAN_MOTION":13.51000362,"ECCENTRICITY":0.0014356,"INCLINATION":89.0047,"RA_OF_ASC_NODE":33.0254,"ARG_OF_PERICENTER":328.4579,"MEAN_ANOMALY":31.571,"EPHEMERIS_TYPE":0,"CLASSIFICATION_TYPE":"U","NORAD_CAT_ID":62253,"ELEMENT_SET_NO":999,"REV_AT_EPOCH":7875,"BSTAR":7.5704e-5,"MEAN_MOTION_DOT":6.1e-7,"MEAN_MOTION_DDOT":0},{"OBJECT_NAME":"QIANFAN-53","OBJECT_ID":"2024-232T","EPOCH":"2026-03-02T20:17:50.743680","MEAN_MOTION":13.51003179,"ECCENTRICITY":0.0013279,"INCLINATION":89.0054,"RA_OF_ASC_NODE":33.1305,"ARG_OF_PERICENTER":330.0888,"MEAN_ANOMALY":29.9503,"EPHEMERIS_TYPE":0,"CLASSIFICATION_TYPE":"U","NORAD_CAT_ID":62254,"ELEMENT_SET_NO":999,"REV_AT_EPOCH":7872,"BSTAR":9.2275e-5,"MEAN_MOTION_DOT":7.1e-7,"MEAN_MOTION_DDOT":0},{"OBJECT_NAME":"QIANFAN-54","OBJECT_ID":"2024-232U","EPOCH":"2026-03-02T19:30:29.298240","MEAN_MOTION":13.51002517,"ECCENTRICITY":0.0003291,"INCLINATION":89.0047,"RA_OF_ASC_NODE":32.8053,"ARG_OF_PERICENTER":43.4526,"MEAN_ANOMALY":316.6884,"EPHEMERIS_TYPE":0,"CLASSIFICATION_TYPE":"U","NORAD_CAT_ID":62255,"ELEMENT_SET_NO":999,"REV_AT_EPOCH":11022,"BSTAR":7.2961e-5,"MEAN_MOTION_DOT":5.9e-7,"MEAN_MOTION_DDOT":0},{"OBJECT_NAME":"QIANFAN-55","OBJECT_ID":"2025-016A","EPOCH":"2026-03-02T18:21:19.685952","MEAN_MOTION":13.50996048,"ECCENTRICITY":0.0019352,"INCLINATION":88.9695,"RA_OF_ASC_NODE":94.9322,"ARG_OF_PERICENTER":115.223,"MEAN_ANOMALY":245.093,"EPHEMERIS_TYPE":0,"CLASSIFICATION_TYPE":"U","NORAD_CAT_ID":62785,"ELEMENT_SET_NO":999,"REV_AT_EPOCH":5799,"BSTAR":6.7978e-5,"MEAN_MOTION_DOT":5.6e-7,"MEAN_MOTION_DDOT":0},{"OBJECT_NAME":"QIANFAN-56","OBJECT_ID":"2025-016B","EPOCH":"2026-03-02T18:44:54.555936","MEAN_MOTION":13.50997991,"ECCENTRICITY":0.0017979,"INCLINATION":88.9668,"RA_OF_ASC_NODE":94.7452,"ARG_OF_PERICENTER":117.1116,"MEAN_ANOMALY":243.1872,"EPHEMERIS_TYPE":0,"CLASSIFICATION_TYPE":"U","NORAD_CAT_ID":62786,"ELEMENT_SET_NO":999,"REV_AT_EPOCH":5804,"BSTAR":9.2191e-5,"MEAN_MOTION_DOT":7.2e-7,"MEAN_MOTION_DDOT":0},{"OBJECT_NAME":"QIANFAN-57","OBJECT_ID":"2025-016C","EPOCH":"2026-03-02T19:32:23.741952","MEAN_MOTION":13.50996848,"ECCENTRICITY":0.0001356,"INCLINATION":88.97,"RA_OF_ASC_NODE":94.9202,"ARG_OF_PERICENTER":95.7831,"MEAN_ANOMALY":264.3474,"EPHEMERIS_TYPE":0,"CLASSIFICATION_TYPE":"U","NORAD_CAT_ID":62787,"ELEMENT_SET_NO":999,"REV_AT_EPOCH":5801,"BSTAR":9.2839e-5,"MEAN_MOTION_DOT":7.2e-7,"MEAN_MOTION_DDOT":0},{"OBJECT_NAME":"QIANFAN-58","OBJECT_ID":"2025-016D","EPOCH":"2026-03-02T18:50:49.936416","MEAN_MOTION":13.50998438,"ECCENTRICITY":0.0015958,"INCLINATION":88.9669,"RA_OF_ASC_NODE":94.7301,"ARG_OF_PERICENTER":110.1294,"MEAN_ANOMALY":250.1575,"EPHEMERIS_TYPE":0,"CLASSIFICATION_TYPE":"U","NORAD_CAT_ID":62788,"ELEMENT_SET_NO":999,"REV_AT_EPOCH":5805,"BSTAR":8.717e-5,"MEAN_MOTION_DOT":6.9e-7,"MEAN_MOTION_DDOT":0},{"OBJECT_NAME":"QIANFAN-59","OBJECT_ID":"2025-016E","EPOCH":"2026-03-02T19:26:35.350368","MEAN_MOTION":13.50994333,"ECCENTRICITY":0.001629,"INCLINATION":88.9692,"RA_OF_ASC_NODE":94.8203,"ARG_OF_PERICENTER":113.4268,"MEAN_ANOMALY":246.8598,"EPHEMERIS_TYPE":0,"CLASSIFICATION_TYPE":"U","NORAD_CAT_ID":62789,"ELEMENT_SET_NO":999,"REV_AT_EPOCH":5805,"BSTAR":6.9136e-5,"MEAN_MOTION_DOT":5.7e-7,"MEAN_MOTION_DDOT":0},{"OBJECT_NAME":"QIANFAN-60","OBJECT_ID":"2025-016F","EPOCH":"2026-03-02T18:27:20.963232","MEAN_MOTION":13.50992316,"ECCENTRICITY":0.001787,"INCLINATION":88.9674,"RA_OF_ASC_NODE":94.7807,"ARG_OF_PERICENTER":110.598,"MEAN_ANOMALY":249.709,"EPHEMERIS_TYPE":0,"CLASSIFICATION_TYPE":"U","NORAD_CAT_ID":62790,"ELEMENT_SET_NO":999,"REV_AT_EPOCH":5803,"BSTAR":5.1808e-5,"MEAN_MOTION_DOT":4.6e-7,"MEAN_MOTION_DDOT":0},{"OBJECT_NAME":"QIANFAN-61","OBJECT_ID":"2025-016G","EPOCH":"2026-03-02T19:14:45.485376","MEAN_MOTION":13.50993642,"ECCENTRICITY":0.0016801,"INCLINATION":88.9741,"RA_OF_ASC_NODE":94.9948,"ARG_OF_PERICENTER":109.8305,"MEAN_ANOMALY":250.4659,"EPHEMERIS_TYPE":0,"CLASSIFICATION_TYPE":"U","NORAD_CAT_ID":62791,"ELEMENT_SET_NO":999,"REV_AT_EPOCH":5805,"BSTAR":6.1974e-5,"MEAN_MOTION_DOT":5.2e-7,"MEAN_MOTION_DDOT":0},{"OBJECT_NAME":"QIANFAN-62","OBJECT_ID":"2025-016H","EPOCH":"2026-03-02T19:20:35.430432","MEAN_MOTION":13.50996335,"ECCENTRICITY":0.0018183,"INCLINATION":88.9687,"RA_OF_ASC_NODE":94.8194,"ARG_OF_PERICENTER":110.2898,"MEAN_ANOMALY":250.021,"EPHEMERIS_TYPE":0,"CLASSIFICATION_TYPE":"U","NORAD_CAT_ID":62792,"ELEMENT_SET_NO":999,"REV_AT_EPOCH":5804,"BSTAR":5.4969e-5,"MEAN_MOTION_DOT":4.8e-7,"MEAN_MOTION_DDOT":0},{"OBJECT_NAME":"QIANFAN-63","OBJECT_ID":"2025-016J","EPOCH":"2026-03-02T18:09:32.024160","MEAN_MOTION":13.50994968,"ECCENTRICITY":0.0018199,"INCLINATION":88.9694,"RA_OF_ASC_NODE":94.7815,"ARG_OF_PERICENTER":115.1973,"MEAN_ANOMALY":245.1067,"EPHEMERIS_TYPE":0,"CLASSIFICATION_TYPE":"U","NORAD_CAT_ID":62793,"ELEMENT_SET_NO":999,"REV_AT_EPOCH":5807,"BSTAR":7.9636e-5,"MEAN_MOTION_DOT":6.4e-7,"MEAN_MOTION_DDOT":0},{"OBJECT_NAME":"QIANFAN-64","OBJECT_ID":"2025-016K","EPOCH":"2026-03-02T19:08:50.332128","MEAN_MOTION":13.50992908,"ECCENTRICITY":0.0016187,"INCLINATION":88.9681,"RA_OF_ASC_NODE":94.7404,"ARG_OF_PERICENTER":108.6105,"MEAN_ANOMALY":251.6805,"EPHEMERIS_TYPE":0,"CLASSIFICATION_TYPE":"U","NORAD_CAT_ID":62794,"ELEMENT_SET_NO":999,"REV_AT_EPOCH":5807,"BSTAR":5.2133e-5,"MEAN_MOTION_DOT":4.6e-7,"MEAN_MOTION_DDOT":0},{"OBJECT_NAME":"QIANFAN-65","OBJECT_ID":"2025-016L","EPOCH":"2026-03-02T19:02:48.037920","MEAN_MOTION":13.51008514,"ECCENTRICITY":0.0016029,"INCLINATION":88.9677,"RA_OF_ASC_NODE":94.7641,"ARG_OF_PERICENTER":110.0936,"MEAN_ANOMALY":250.1942,"EPHEMERIS_TYPE":0,"CLASSIFICATION_TYPE":"U","NORAD_CAT_ID":62795,"ELEMENT_SET_NO":999,"REV_AT_EPOCH":5805,"BSTAR":6.6661e-5,"MEAN_MOTION_DOT":5.5e-7,"MEAN_MOTION_DDOT":0},{"OBJECT_NAME":"QIANFAN-66","OBJECT_ID":"2025-016M","EPOCH":"2026-03-02T17:57:35.720640","MEAN_MOTION":13.50996706,"ECCENTRICITY":0.0017158,"INCLINATION":88.9697,"RA_OF_ASC_NODE":94.7546,"ARG_OF_PERICENTER":106.5277,"MEAN_ANOMALY":253.7761,"EPHEMERIS_TYPE":0,"CLASSIFICATION_TYPE":"U","NORAD_CAT_ID":62796,"ELEMENT_SET_NO":999,"REV_AT_EPOCH":5809,"BSTAR":0.00010064,"MEAN_MOTION_DOT":7.7e-7,"MEAN_MOTION_DDOT":0},{"OBJECT_NAME":"QIANFAN-67","OBJECT_ID":"2025-016N","EPOCH":"2026-03-02T18:03:26.180640","MEAN_MOTION":13.50995024,"ECCENTRICITY":0.0017079,"INCLINATION":88.9687,"RA_OF_ASC_NODE":94.772,"ARG_OF_PERICENTER":112.5856,"MEAN_ANOMALY":247.7104,"EPHEMERIS_TYPE":0,"CLASSIFICATION_TYPE":"U","NORAD_CAT_ID":62797,"ELEMENT_SET_NO":999,"REV_AT_EPOCH":5806,"BSTAR":7.4956e-5,"MEAN_MOTION_DOT":6.1e-7,"MEAN_MOTION_DDOT":0},{"OBJECT_NAME":"QIANFAN-68","OBJECT_ID":"2025-016P","EPOCH":"2026-03-02T17:51:49.146048","MEAN_MOTION":13.51004983,"ECCENTRICITY":0.0017141,"INCLINATION":88.9691,"RA_OF_ASC_NODE":94.8209,"ARG_OF_PERICENTER":111.0299,"MEAN_ANOMALY":249.2688,"EPHEMERIS_TYPE":0,"CLASSIFICATION_TYPE":"U","NORAD_CAT_ID":62798,"ELEMENT_SET_NO":999,"REV_AT_EPOCH":5804,"BSTAR":8.3696e-5,"MEAN_MOTION_DOT":6.6e-7,"MEAN_MOTION_DDOT":0}]
